[{"OBJECT_NAME":"STARLINK-5277","OBJECT_ID":"2023-010A","EPOCH":"2026-03-09T22:55:25.480992","MEAN_MOTION":14.98334733,"ECCENTRICITY":0.000306,"INCLINATION":70.0003,"RA_OF_ASC_NODE":43.87,"ARG_OF_PERICENTER":270.0377,"MEAN_ANOMALY":90.0431,"EPHEMERIS_TYPE":0,"CLASSIFICATION_TYPE":"U","NORAD_CAT_ID":55269,"ELEMENT_SET_NO":999,"REV_AT_EPOCH":17310,"BSTAR":3.0717251e-5,"MEAN_MOTION_DOT":2.74e-6,"MEAN_MOTION_DDOT":0},{"OBJECT_NAME":"NOAA 16 DEB","OBJECT_ID":"2000-055PP","EPOCH":"2026-03-07T09:37:02.399808","MEAN_MOTION":14.94870962,"ECCENTRICITY":0.00127779,"INCLINATION":98.9453,"RA_OF_ASC_NODE":285.7448,"ARG_OF_PERICENTER":347.412,"MEAN_ANOMALY":12.6776,"EPHEMERIS_TYPE":0,"CLASSIFICATION_TYPE":"U","NORAD_CAT_ID":41709,"ELEMENT_SET_NO":999,"REV_AT_EPOCH":51965,"BSTAR":0.009194972,"MEAN_MOTION_DOT":0.00101727,"MEAN_MOTION_DDOT":0}]
